[{"latitude":0,"postcode":"4006","ID":730318354242637824,"category":-1,"longitude":0,"opinion":80},{"latitude":0,"postcode":"4006","ID":730337288824094720,"category":-1,"longitude":0,"opinion":80},{"latitude":-27.4564823,"postcode":"4029","ID":709719581548539905,"category":-1,"longitude":153.0327276,"opinion":80},{"latitude":-27.46067021,"postcode":"4029","ID":717136036179144704,"category":-1,"longitude":153.04362965,"opinion":88},{"latitude":-27.4469,"postcode":"4051","ID":715413324125642752,"category":-1,"longitude":153.0283,"opinion":78},{"latitude":-27.4469,"postcode":"4051","ID":727672435261087744,"category":-1,"longitude":153.0283,"opinion":88},{"latitude":-27.4070555,"postcode":"4054","ID":712754526961270784,"category":-1,"longitude":152.99187485,"opinion":78},{"latitude":-27.460202,"postcode":"4059","ID":714609728039608321,"category":-1,"longitude":153.029969,"opinion":88},{"latitude":-27.46959209,"postcode":"4059","ID":733795346057428992,"category":-1,"longitude":153.02525997,"opinion":88},{"latitude":-27.4678,"postcode":"4059","ID":737888677800640516,"category":-1,"longitude":153.028,"opinion":78},{"latitude":-27.48462374,"postcode":"4064","ID":716144277215117313,"category":-1,"longitude":153.02847733,"opinion":88},{"latitude":-27.48563478,"postcode":"4064","ID":729402576723169280,"category":-1,"longitude":153.02767677,"opinion":88},{"latitude":-27.47788572,"postcode":"4064","ID":737907407918075904,"category":-1,"longitude":153.02717255,"opinion":80},{"latitude":0,"postcode":"4067","ID":738643905399267328,"category":-1,"longitude":0,"opinion":88},{"latitude":-27.54050185,"postcode":"4161","ID":707917948078432256,"category":-1,"longitude":153.2514801,"opinion":88},{"latitude":-28.07103611,"postcode":"4211","ID":716230457017438209,"category":-1,"longitude":153.37593889,"opinion":88},{"latitude":-28.07103611,"postcode":"4211","ID":720052998127403008,"category":-1,"longitude":153.37593889,"opinion":88},{"latitude":-27.9927645,"postcode":"4212","ID":725807757945802752,"category":-1,"longitude":153.3371562,"opinion":80},{"latitude":-27.96301087,"postcode":"4214","ID":720828272376819713,"category":-1,"longitude":153.382839,"opinion":88},{"latitude":-28.1976914,"postcode":"4224","ID":707301620804149250,"category":-1,"longitude":153.50495444,"opinion":78},{"latitude":-28.07241988,"postcode":"4226","ID":724010021823078400,"category":-1,"longitude":153.4269536,"opinion":80},{"latitude":-28.00895,"postcode":"4275","ID":719785433291358208,"category":-1,"longitude":153.39456,"opinion":88},{"latitude":-28.22382927,"postcode":"4370","ID":722575159643602944,"category":-1,"longitude":152.01774443,"opinion":88},{"latitude":-27.08019355,"postcode":"4516","ID":705245472068378624,"category":-1,"longitude":152.96382441,"opinion":88},{"latitude":-26.83567433,"postcode":"4550","ID":728808995654381568,"category":-1,"longitude":152.96088696,"opinion":80},{"latitude":-26.78262213,"postcode":"4551","ID":704836389427355648,"category":-1,"longitude":153.12566743,"opinion":88},{"latitude":-26.5321598,"postcode":"4606","ID":707770909969543168,"category":-1,"longitude":151.8387756,"opinion":80},{"latitude":-25.30058,"postcode":"4659","ID":729873828789227520,"category":-1,"longitude":152.8265199,"opinion":88},{"latitude":-20.4004,"postcode":"4800","ID":719370877851344897,"category":-1,"longitude":148.5848,"opinion":88},{"latitude":-19.24717541,"postcode":"4818","ID":710329166315569152,"category":-1,"longitude":146.81075347,"opinion":80},{"latitude":-16.93154235,"postcode":"4870","ID":722581640229339136,"category":-1,"longitude":145.76590439,"opinion":88},{"latitude":-16.81947699,"postcode":"4879","ID":719029034961637376,"category":-1,"longitude":145.68305192,"opinion":88},{"latitude":-17.29543025,"postcode":"4880","ID":705002444040712193,"category":-1,"longitude":145.45324622,"opinion":80},{"latitude":0,"postcode":"4000","ID":710005464176726016,"category":-1,"longitude":0,"opinion":80},{"latitude":0,"postcode":"4000","ID":709849658382688256,"category":-1,"longitude":0,"opinion":88},{"latitude":0,"postcode":"4000","ID":709821760405774336,"category":-1,"longitude":0,"opinion":88},{"latitude":0,"postcode":"4000","ID":709763749645783040,"category":-1,"longitude":0,"opinion":88},{"latitude":0,"postcode":"4000","ID":709620240494239744,"category":-1,"longitude":0,"opinion":88},{"latitude":0,"postcode":"4000","ID":709511677549666305,"category":-1,"longitude":0,"opinion":80},{"latitude":0,"postcode":"4000","ID":709221707198963712,"category":-1,"longitude":0,"opinion":78},{"latitude":0,"postcode":"4000","ID":709103111189762048,"category":-1,"longitude":0,"opinion":88},{"latitude":0,"postcode":"4000","ID":718510057378463745,"category":-1,"longitude":0,"opinion":88},{"latitude":0,"postcode":"4000","ID":718396882091909120,"category":-1,"longitude":0,"opinion":78},{"latitude":0,"postcode":"4000","ID":718349715302195200,"category":-1,"longitude":0,"opinion":78},{"latitude":0,"postcode":"4000","ID":718319471400742915,"category":-1,"longitude":0,"opinion":88},{"latitude":0,"postcode":"4000","ID":718699434499026944,"category":-1,"longitude":0,"opinion":88},{"latitude":0,"postcode":"4000","ID":718712095794204672,"category":-1,"longitude":0,"opinion":88},{"latitude":0,"postcode":"4000","ID":718632463468208128,"category":-1,"longitude":0,"opinion":78},{"latitude":0,"postcode":"4000","ID":718632367917789184,"category":-1,"longitude":0,"opinion":78},{"latitude":0,"postcode":"4000","ID":718629707441418240,"category":-1,"longitude":0,"opinion":78},{"latitude":0,"postcode":"4000","ID":713891852148195328,"category":-1,"longitude":0,"opinion":78},{"latitude":0,"postcode":"4000","ID":713968556401102848,"category":-1,"longitude":0,"opinion":80},{"latitude":0,"postcode":"4000","ID":714322769727635456,"category":-1,"longitude":0,"opinion":78},{"latitude":0,"postcode":"4000","ID":713968333805199360,"category":-1,"longitude":0,"opinion":78},{"latitude":0,"postcode":"4000","ID":714307295254077441,"category":-1,"longitude":0,"opinion":88},{"latitude":0,"postcode":"4000","ID":714264898260193281,"category":-1,"longitude":0,"opinion":88},{"latitude":0,"postcode":"4000","ID":714260235133779968,"category":-1,"longitude":0,"opinion":88},{"latitude":0,"postcode":"4000","ID":714697881014415361,"category":-1,"longitude":0,"opinion":78},{"latitude":0,"postcode":"4000","ID":714694160998088705,"category":-1,"longitude":0,"opinion":78},{"latitude":0,"postcode":"4000","ID":714690527359340545,"category":-1,"longitude":0,"opinion":88},{"latitude":0,"postcode":"4000","ID":714674927660580864,"category":-1,"longitude":0,"opinion":78},{"latitude":0,"postcode":"4000","ID":714652804766437377,"category":-1,"longitude":0,"opinion":88},{"latitude":0,"postcode":"4000","ID":714648319511957504,"category":-1,"longitude":0,"opinion":88},{"latitude":0,"postcode":"4000","ID":714659918897405952,"category":-1,"longitude":0,"opinion":78},{"latitude":0,"postcode":"4000","ID":714630680060235777,"category":-1,"longitude":0,"opinion":88},{"latitude":0,"postcode":"4000","ID":714561626695970817,"category":-1,"longitude":0,"opinion":80},{"latitude":0,"postcode":"4000","ID":714894500032811008,"category":-1,"longitude":0,"opinion":78},{"latitude":0,"postcode":"4000","ID":714766871543865347,"category":-1,"longitude":0,"opinion":88},{"latitude":0,"postcode":"4000","ID":715278006969872391,"category":-1,"longitude":0,"opinion":88},{"latitude":0,"postcode":"4000","ID":715383846431232001,"category":-1,"longitude":0,"opinion":88},{"latitude":0,"postcode":"4000","ID":715642295962329089,"category":-1,"longitude":0,"opinion":80},{"latitude":0,"postcode":"4000","ID":715786397748211713,"category":-1,"longitude":0,"opinion":80},{"latitude":0,"postcode":"4000","ID":715767771422920704,"category":-1,"longitude":0,"opinion":78},{"latitude":0,"postcode":"4000","ID":715755346309091329,"category":-1,"longitude":0,"opinion":88},{"latitude":0,"postcode":"4000","ID":715748940285624320,"category":-1,"longitude":0,"opinion":88},{"latitude":0,"postcode":"4000","ID":715654895232225280,"category":-1,"longitude":0,"opinion":88},{"latitude":0,"postcode":"4000","ID":715909202443681793,"category":-1,"longitude":0,"opinion":88},{"latitude":0,"postcode":"4000","ID":716476233060585476,"category":-1,"longitude":0,"opinion":80},{"latitude":0,"postcode":"4000","ID":716356501179408384,"category":-1,"longitude":0,"opinion":88},{"latitude":0,"postcode":"4000","ID":717622390990221312,"category":-1,"longitude":0,"opinion":88},{"latitude":0,"postcode":"4000","ID":717422899154567169,"category":-1,"longitude":0,"opinion":80},{"latitude":0,"postcode":"4000","ID":717939116764237824,"category":-1,"longitude":0,"opinion":78},{"latitude":0,"postcode":"4000","ID":717929915610439680,"category":-1,"longitude":0,"opinion":88},{"latitude":0,"postcode":"4000","ID":717836871309598721,"category":-1,"longitude":0,"opinion":78},{"latitude":0,"postcode":"4000","ID":708882881855279104,"category":-1,"longitude":0,"opinion":88},{"latitude":0,"postcode":"4000","ID":708842432817922050,"category":-1,"longitude":0,"opinion":88},{"latitude":0,"postcode":"4000","ID":708402091572727808,"category":-1,"longitude":0,"opinion":88},{"latitude":0,"postcode":"4000","ID":708204859057528833,"category":-1,"longitude":0,"opinion":88},{"latitude":0,"postcode":"4000","ID":708204175029460993,"category":-1,"longitude":0,"opinion":88},{"latitude":0,"postcode":"4000","ID":708176266097065984,"category":-1,"longitude":0,"opinion":88},{"latitude":0,"postcode":"4000","ID":708137941261012992,"category":-1,"longitude":0,"opinion":88},{"latitude":0,"postcode":"4000","ID":708044409410101249,"category":-1,"longitude":0,"opinion":88},{"latitude":0,"postcode":"4000","ID":711833295604985856,"category":-1,"longitude":0,"opinion":88},{"latitude":0,"postcode":"4000","ID":711814594415742976,"category":-1,"longitude":0,"opinion":80},{"latitude":0,"postcode":"4000","ID":711791525269786625,"category":-1,"longitude":0,"opinion":88},{"latitude":0,"postcode":"4000","ID":711739757219414016,"category":-1,"longitude":0,"opinion":78},{"latitude":0,"postcode":"4000","ID":712152628810162176,"category":-1,"longitude":0,"opinion":88},{"latitude":0,"postcode":"4000","ID":712036628999626752,"category":-1,"longitude":0,"opinion":78},{"latitude":0,"postcode":"4000","ID":712387631171108866,"category":-1,"longitude":0,"opinion":88},{"latitude":0,"postcode":"4000","ID":712484412189970432,"category":-1,"longitude":0,"opinion":88},{"latitude":0,"postcode":"4000","ID":712728505646067714,"category":-1,"longitude":0,"opinion":78},{"latitude":0,"postcode":"4000","ID":712819217372831744,"category":-1,"longitude":0,"opinion":88},{"latitude":0,"postcode":"4000","ID":712742283897122816,"category":-1,"longitude":0,"opinion":88},{"latitude":0,"postcode":"4000","ID":713209495531479040,"category":-1,"longitude":0,"opinion":88},{"latitude":0,"postcode":"4000","ID":713402697655971840,"category":-1,"longitude":0,"opinion":88},{"latitude":0,"postcode":"4000","ID":713275370313748480,"category":-1,"longitude":0,"opinion":80},{"latitude":0,"postcode":"4000","ID":710999397946028036,"category":-1,"longitude":0,"opinion":88},{"latitude":0,"postcode":"4000","ID":710995524644569088,"category":-1,"longitude":0,"opinion":88},{"latitude":0,"postcode":"4000","ID":710712366690795520,"category":-1,"longitude":0,"opinion":88},{"latitude":0,"postcode":"4001","ID":708099207001804800,"category":-1,"longitude":0,"opinion":88},{"latitude":0,"postcode":"4001","ID":708084057746178048,"category":-1,"longitude":0,"opinion":88},{"latitude":0,"postcode":"4001","ID":707830912600281088,"category":-1,"longitude":0,"opinion":80},{"latitude":0,"postcode":"4001","ID":707830874377555968,"category":-1,"longitude":0,"opinion":88},{"latitude":0,"postcode":"4001","ID":710008553495519232,"category":-1,"longitude":0,"opinion":80},{"latitude":0,"postcode":"4001","ID":718246823991910405,"category":-1,"longitude":0,"opinion":88},{"latitude":0,"postcode":"4001","ID":714748129720078336,"category":-1,"longitude":0,"opinion":88},{"latitude":0,"postcode":"4001","ID":715292041740099584,"category":-1,"longitude":0,"opinion":88},{"latitude":0,"postcode":"4001","ID":717127113573203968,"category":-1,"longitude":0,"opinion":88},{"latitude":0,"postcode":"4001","ID":717455483875958784,"category":-1,"longitude":0,"opinion":88},{"latitude":0,"postcode":"4001","ID":717871574607470592,"category":-1,"longitude":0,"opinion":88},{"latitude":0,"postcode":"4001","ID":709164506149036033,"category":-1,"longitude":0,"opinion":80},{"latitude":0,"postcode":"4001","ID":708123867126960129,"category":-1,"longitude":0,"opinion":88},{"latitude":0,"postcode":"4001","ID":708064765537423360,"category":-1,"longitude":0,"opinion":78},{"latitude":0,"postcode":"4001","ID":707865105870917632,"category":-1,"longitude":0,"opinion":88},{"latitude":0,"postcode":"4001","ID":707865070311575552,"category":-1,"longitude":0,"opinion":88},{"latitude":0,"postcode":"4001","ID":707831817441652736,"category":-1,"longitude":0,"opinion":88},{"latitude":0,"postcode":"4001","ID":707831795002138624,"category":-1,"longitude":0,"opinion":80},{"latitude":0,"postcode":"4001","ID":711027732059000832,"category":-1,"longitude":0,"opinion":80},{"latitude":0,"postcode":"4001","ID":711026804828426241,"category":-1,"longitude":0,"opinion":88},{"latitude":0,"postcode":"4001","ID":711026710695714816,"category":-1,"longitude":0,"opinion":88},{"latitude":0,"postcode":"4006","ID":718558313642795008,"category":-1,"longitude":0,"opinion":80},{"latitude":0,"postcode":"4006","ID":715358923449057281,"category":-1,"longitude":0,"opinion":78},{"latitude":0,"postcode":"4006","ID":710235495054225408,"category":-1,"longitude":0,"opinion":88},{"latitude":0,"postcode":"4006","ID":710950032350924800,"category":-1,"longitude":0,"opinion":88},{"latitude":-27.44989,"postcode":"4006","ID":861090520604434432,"category":-1,"longitude":153.04155,"opinion":88},{"latitude":-27.22816614,"postcode":"4022","ID":865104941102227456,"category":-1,"longitude":153.10448044,"opinion":88},{"latitude":0,"postcode":"4029","ID":715726744880177152,"category":-1,"longitude":0,"opinion":88},{"latitude":-27.45965357,"postcode":"4029","ID":870843124150620160,"category":-1,"longitude":153.0368042,"opinion":88},{"latitude":-27.45808832,"postcode":"4029","ID":878470362509561856,"category":-1,"longitude":153.03454294,"opinion":88},{"latitude":-27.39301,"postcode":"4036","ID":856800923447963648,"category":-1,"longitude":153.01075,"opinion":88},{"latitude":-27.44887065,"postcode":"4051","ID":870655148988784641,"category":-1,"longitude":153.02446008,"opinion":88},{"latitude":-27.45214259,"postcode":"4051","ID":878242876076941312,"category":-1,"longitude":153.00596915,"opinion":88},{"latitude":-27.46106504,"postcode":"4059","ID":866555795089051648,"category":-1,"longitude":153.02110035,"opinion":88},{"latitude":-27.48371543,"postcode":"4064","ID":869841372878131200,"category":-1,"longitude":153.02661507,"opinion":88},{"latitude":-27.47567486,"postcode":"4064","ID":870934012411482112,"category":-1,"longitude":153.01354224,"opinion":88},{"latitude":-27.47813,"postcode":"4065","ID":856320860587671552,"category":-1,"longitude":152.99797,"opinion":80},{"latitude":-27.47813,"postcode":"4065","ID":857854127748993025,"category":-1,"longitude":152.99797,"opinion":88},{"latitude":0,"postcode":"4066","ID":716921392193626112,"category":-1,"longitude":0,"opinion":88},{"latitude":0,"postcode":"4067","ID":709893249591169024,"category":-1,"longitude":0,"opinion":78},{"latitude":0,"postcode":"4067","ID":710259935502684160,"category":-1,"longitude":0,"opinion":88},{"latitude":0,"postcode":"4067","ID":710690850376908800,"category":-1,"longitude":0,"opinion":88},{"latitude":0,"postcode":"4067","ID":710677491489189889,"category":-1,"longitude":0,"opinion":88},{"latitude":-27.51794336,"postcode":"4068","ID":864769373856288769,"category":-1,"longitude":152.99797119,"opinion":80},{"latitude":-27.51794336,"postcode":"4068","ID":866488851564572675,"category":-1,"longitude":152.99797119,"opinion":80},{"latitude":-27.51794336,"postcode":"4068","ID":878094314194206721,"category":-1,"longitude":152.99797119,"opinion":88},{"latitude":0,"postcode":"4072","ID":718253142174003200,"category":-1,"longitude":0,"opinion":78},{"latitude":0,"postcode":"4072","ID":718249272232153088,"category":-1,"longitude":0,"opinion":78},{"latitude":0,"postcode":"4072","ID":718685645741240322,"category":-1,"longitude":0,"opinion":78},{"latitude":0,"postcode":"4072","ID":714173400361541632,"category":-1,"longitude":0,"opinion":88},{"latitude":0,"postcode":"4072","ID":714959193359384576,"category":-1,"longitude":0,"opinion":80},{"latitude":0,"postcode":"4072","ID":717555303114416128,"category":-1,"longitude":0,"opinion":88},{"latitude":0,"postcode":"4072","ID":711734599408222208,"category":-1,"longitude":0,"opinion":80},{"latitude":0,"postcode":"4072","ID":713254610064924673,"category":-1,"longitude":0,"opinion":80},{"latitude":0,"postcode":"4072","ID":709546144729161730,"category":-1,"longitude":0,"opinion":88},{"latitude":0,"postcode":"4072","ID":708752677505609729,"category":-1,"longitude":0,"opinion":88},{"latitude":0,"postcode":"4072","ID":708028152992243712,"category":-1,"longitude":0,"opinion":88},{"latitude":0,"postcode":"4072","ID":708031083187601408,"category":-1,"longitude":0,"opinion":88},{"latitude":0,"postcode":"4072","ID":707029280409018368,"category":-1,"longitude":0,"opinion":88},{"latitude":0,"postcode":"4072","ID":707007220542611456,"category":-1,"longitude":0,"opinion":88},{"latitude":0,"postcode":"4072","ID":882788616111509504,"category":-1,"longitude":0,"opinion":88},{"latitude":0,"postcode":"4072","ID":884186391751442432,"category":-1,"longitude":0,"opinion":78},{"latitude":0,"postcode":"4111","ID":709621174850953216,"category":-1,"longitude":0,"opinion":88},{"latitude":0,"postcode":"4111","ID":716956197232857089,"category":-1,"longitude":0,"opinion":80},{"latitude":0,"postcode":"4111","ID":711701190413721600,"category":-1,"longitude":0,"opinion":88},{"latitude":-27.61444188,"postcode":"4119","ID":872033840369471490,"category":-1,"longitude":153.12142629,"opinion":78},{"latitude":-27.61444188,"postcode":"4119","ID":872218670004613120,"category":-1,"longitude":153.12142629,"opinion":88},{"latitude":-27.5833,"postcode":"4164","ID":872345946847358976,"category":-1,"longitude":153.3,"opinion":88},{"latitude":-27.8697796,"postcode":"4208","ID":885029425481490434,"category":-1,"longitude":153.2966003,"opinion":88},{"latitude":-27.9906578,"postcode":"4212","ID":857705271266729984,"category":-1,"longitude":153.3420339,"opinion":80},{"latitude":-27.9906578,"postcode":"4212","ID":857705625043718144,"category":-1,"longitude":153.3420339,"opinion":80},{"latitude":-27.9906578,"postcode":"4212","ID":857707537394565120,"category":-1,"longitude":153.3420339,"opinion":88},{"latitude":-27.9907364,"postcode":"4212","ID":884872453532434432,"category":-1,"longitude":153.3415328,"opinion":80},{"latitude":-27.95898863,"postcode":"4214","ID":872703013399515136,"category":-1,"longitude":153.38188813,"opinion":88},{"latitude":-27.9588624,"postcode":"4214","ID":875736107236945920,"category":-1,"longitude":153.3820005,"opinion":88},{"latitude":-27.95972,"postcode":"4214","ID":885413916041330689,"category":-1,"longitude":153.38269,"opinion":80},{"latitude":0,"postcode":"4215","ID":712175789987524608,"category":-1,"longitude":0,"opinion":88},{"latitude":0,"postcode":"4215","ID":712137742461902848,"category":-1,"longitude":0,"opinion":78},{"latitude":-28.01793141,"postcode":"4217","ID":882897787838373888,"category":-1,"longitude":153.43285522,"opinion":80},{"latitude":-28.03528,"postcode":"4275","ID":866062792574611456,"category":-1,"longitude":153.25914,"opinion":88},{"latitude":-27.619267,"postcode":"4346","ID":882556599910359042,"category":-1,"longitude":152.758842,"opinion":78},{"latitude":-27.56053,"postcode":"4400","ID":869444421871431680,"category":-1,"longitude":151.9464,"opinion":88},{"latitude":-27.56053,"postcode":"4400","ID":869446424492216320,"category":-1,"longitude":151.9464,"opinion":88},{"latitude":-27.56053,"postcode":"4400","ID":870859704314060800,"category":-1,"longitude":151.9464,"opinion":88},{"latitude":-26.67482008,"postcode":"4572","ID":864784396322320386,"category":-1,"longitude":153.11313421,"opinion":88},{"latitude":-26.74433618,"postcode":"4572","ID":873839577492017152,"category":-1,"longitude":153.11467829,"opinion":80},{"latitude":-26.5327238,"postcode":"4606","ID":875339609017856000,"category":-1,"longitude":151.83820192,"opinion":88},{"latitude":-25.6333,"postcode":"4627","ID":859351869579251712,"category":-1,"longitude":151.6,"opinion":88},{"latitude":-25.5333,"postcode":"4650","ID":879919599235497985,"category":-1,"longitude":152.7,"opinion":80},{"latitude":-25.5333,"postcode":"4650","ID":879918913772859392,"category":-1,"longitude":152.7,"opinion":80},{"latitude":-25.3925415,"postcode":"4655","ID":874573977783554048,"category":-1,"longitude":153.02992344,"opinion":88},{"latitude":-25.3925415,"postcode":"4655","ID":874576393333600256,"category":-1,"longitude":153.02992344,"opinion":88},{"latitude":-24.88658,"postcode":"4673","ID":870448416588955648,"category":-1,"longitude":152.32015,"opinion":80},{"latitude":-24.88658,"postcode":"4673","ID":870448925144219648,"category":-1,"longitude":152.32015,"opinion":80},{"latitude":-24.8652802,"postcode":"4673","ID":873519768539725824,"category":-1,"longitude":152.3482056,"opinion":80},{"latitude":-24.88658,"postcode":"4673","ID":890762917351739392,"category":-1,"longitude":152.32015,"opinion":80},{"latitude":-23.85011218,"postcode":"4694","ID":869152581788061697,"category":-1,"longitude":151.24873965,"opinion":88},{"latitude":-22.8167,"postcode":"4706","ID":878763874203439104,"category":-1,"longitude":149.883,"opinion":80},{"latitude":-20.4004,"postcode":"4800","ID":872236314418180096,"category":-1,"longitude":148.5848,"opinion":88},{"latitude":-19.27125528,"postcode":"4812","ID":872967820895825921,"category":-1,"longitude":146.78649729,"opinion":80},{"latitude":-19.27125528,"postcode":"4812","ID":872967820795052032,"category":-1,"longitude":146.78649729,"opinion":80},{"latitude":-19.27110444,"postcode":"4812","ID":873032625014714370,"category":-1,"longitude":146.78652453,"opinion":88},{"latitude":-19.32061396,"postcode":"4814","ID":887623626022899712,"category":-1,"longitude":146.76190115,"opinion":88},{"latitude":-19.32102449,"postcode":"4814","ID":888241671862980608,"category":-1,"longitude":146.76153537,"opinion":88},{"latitude":-16.9199968,"postcode":"4870","ID":855390485728251904,"category":-1,"longitude":145.7656126,"opinion":88}]